HST                     
1 20580U 90037B   26158.29828937  .00006010  00000+0  18954-3 0  9990
2 20580  28.4712 148.1547 0001938  44.7656 315.3096 15.30642118787059
POLAR                   
1 23802U 96013A   26159.56451730  .00000117  00000+0  00000+0 0  9995
2 23802  79.8436 227.1533 6462019 209.3782  89.3193  1.29846146144740
SWAS                    
1 25560U 98071A   26159.53422963  .00004378  00000+0  27822-3 0  9995
2 25560  69.8962 249.8323 0008944 267.6953  92.3187 15.09572739495965
CXO                     
1 25867U 99040B   26161.44248451  .00000667  00000+0  00000+0 0  9995
2 25867  56.0540 116.8503 7852548 310.2578   0.2529  0.37805334 17299
XMM-NEWTON              
1 25989U 99066A   26161.36780906  .00000089  00000+0  00000+0 0  9993
2 25989  64.5271 283.0748 4677764  65.0342   0.0416  0.50122831 22976
TERRA                   
1 25994U 99068A   26159.81335137  .00000378  00000+0  85954-4 0  9997
2 25994  97.9459 209.6913 0000972 228.7766 264.5397 14.61096572408380
CLUSTER II-FM7 (SAMBA)  
1 26410U 00041A   26161.44626665  .00004459  00000+0  00000+0 0  9993
2 26410 149.9132  49.6129 9048191 266.6863 359.9829  0.44840364 20284
CLUSTER II-FM8 (TANGO)  
1 26464U 00045B   26157.18212104  .00004544  00000+0  00000+0 0  9996
2 26464 150.1407  49.6985 9046201 266.6195   3.2041  0.44406384 20263
ODIN                    
1 26702U 01007A   26159.83196135  .00150976  00000+0  10887-2 0  9997
2 26702  97.3860 200.2521 0006519 153.4635 206.6964 15.73070129388087
TIMED                   
1 26998U 01055B   26159.71191934  .00001460  00000+0  13616-3 0  9993
2 26998  74.0679 252.0827 0000646 352.2837   7.8337 14.95276833329551
CORIOLIS                
1 27640U 03001A   26159.74136881  .00000106  00000+0  70589-4 0  9993
2 27640  98.7126 166.7551 0012996 234.6012 125.3951 14.19942578213024
SORCE                   
1 27651U 03004A   26158.70861575  .00003445  00000+0  25720-3 0  9993
2 27651  39.9917 315.7552 0017869 339.7662  20.2423 15.03662902270473
MOST                    
1 27843U 03031D   26159.76367204  .00000078  00000+0  56047-4 0  9999
2 27843  98.7045 167.6072 0008693 278.0070  82.0121 14.21320816189514
SCISAT 1                
1 27858U 03036A   26159.78440860  .00000575  00000+0  78149-4 0  9991
2 27858  73.9286 188.0382 0008688 257.0409 102.9797 14.81439745230202
SWIFT                   
1 28485U 04047A   26159.59812323  .00052750  00000+0  45448-3 0  9994
2 28485  20.5526 251.1191 0002508 160.7611 199.2930 15.67465385185519
HINODE (SOLAR-B)        
1 29479U 06041A   26159.80512819  .00000726  00000+0  13326-3 0  9991
2 29479  98.0548 176.0812 0016394 318.5042  41.4918 14.68611588 53641
SHIJIAN-6 02A (SJ-6 02A)
1 29505U 06046A   26159.84584355  .00005146  00000+0  26505-3 0  9998
2 29505  97.6369 200.8500 0003801 144.7865 215.3619 15.16842603 71006
SHIJIAN-6 02B (SJ-6 02B)
1 29506U 06046B   26159.88210459  .00001188  00000+0  96769-4 0  9996
2 29506  97.7164 188.9918 0014790  84.4519 275.8392 15.01355380 69499
FGRST (GLAST)           
1 33053U 08029A   26159.58535396  .00003627  00000+0  13227-3 0  9995
2 33053  25.5825 264.2088 0007784 222.0755 137.9186 15.23906525994524
SDO                     
1 36395U 10005A   26159.32339039 -.00000060  00000+0  00000+0 0  9992
2 36395  34.6325  86.4781 0001516  53.0773 131.5755  1.00270840 59972
CRYOSAT 2               
1 36508U 10013A   26159.81107758  .00000139  00000+0  33734-4 0  9993
2 36508  92.0348 275.2660 0002221  86.3413 273.8048 14.51896773856866
X-SAT                   
1 37389U 11015C   26159.80088056 -.00000032  00000+0  40187-5 0  9996
2 37389  98.3512 137.2241 0014506  12.8194 347.3353 14.25203166786482
GCOM-W1 (SHIZUKU)       
1 38337U 12025A   26159.79193160  .00000515  00000+0  12440-3 0  9997
2 38337  98.2020 100.4748 0001853  81.1572 337.0697 14.57117235747810
NUSTAR                  
1 38358U 12031A   26159.91670139  .00004036  00000+0  19664-3 0  9994
2 38358   6.0252  96.1642 0008312 339.1149  64.9128 15.08722097  1301
NEOSSAT                 
1 39089U 13009D   26159.49869314  .00000150  00000+0  66688-4 0  9992
2 39089  98.4176 339.7382 0009789 272.8783  87.1283 14.35823426695491
BRITE-AUSTRIA           
1 39091U 13009F   26159.78024867  .00000187  00000+0  78153-4 0  9993
2 39091  98.3994 339.4243 0008960 264.9096  95.1068 14.36538871695840
IRIS                    
1 39197U 13033A   26159.47785057  .00001096  00000+0  13160-3 0  9994
2 39197  97.9336 358.7822 0024227 350.9910   9.0867 14.85868163699089
HISAKI (SPRINT-A)       
1 39253U 13049A   26159.58522224  .00000131  00000+0  88607-4 0  9999
2 39253  29.7205 263.7459 0136894 307.1450  51.6686 13.55543802630250
CASSIOPE                
1 39265U 13055A   26159.82809606  .00040405 -60143-6  44546-3 0  9991
2 39265  80.9147  76.8653 0295490  90.4686 273.0408 15.24428554666397
STSAT-3                 
1 39422U 13066G   26159.85598873  .00003470  00000+0  26410-3 0  9991
2 39422  97.6216 129.8783 0010974  66.6974 293.5405 15.02707808682956
SWARM B                 
1 39451U 13067A   26159.81940101  .00003330  00000+0  11889-3 0  9994
2 39451  87.7441 344.8598 0003387  90.4288 269.7349 15.28500962681966
